*******************************************************************************
Ephemeris / WWW_USER Mon Mar 24 11:05:22 2025 Pasadena, USA      / Horizons    
*******************************************************************************
Target body name: (2018 VN1)                      {source: JPL#9}
Center body name: Earth (399)                     {source: DE441}
Center-site name: Mauna Kea
*******************************************************************************
Start time      : A.D. 2018-Aug-27 04:51:00.0000 UT      
Stop  time      : A.D. 2018-Aug-27 15:56:00.0000 UT      
Step-size       : 1 minutes
*******************************************************************************
Target pole/equ : undefined
Target radii    : undefined                                                    
Center geodetic : 204.5278, 19.8260847, 4.21024   {E-lon(deg),Lat(deg),Alt(km)}
Center cylindric: 204.5278, 6006.35451, 2151.0229 {E-lon(deg),Dxy(km),Dz(km)}
Center pole/equ : ITRF93                          {East-longitude positive}
Center radii    : 6378.137, 6378.137, 6356.752 km {Equator_a, b, pole_c}       
Target primary  : Sun
Vis. interferer : MOON (R_eq= 1737.400) km        {source: DE441}
Rel. light bend : Sun                             {source: DE441}
Rel. lght bnd GM: 1.3271E+11 km^3/s^2                                          
Small-body perts: Yes                             {source: SB441-N16}
Atmos refraction: NO (AIRLESS)
RA format       : HMS
Time format     : CAL 
Calendar mode   : Mixed Julian/Gregorian
RTS-only print  : NO       
EOP file        : eop.250321.p250617                                           
EOP coverage    : DATA-BASED 1962-JAN-20 TO 2025-MAR-21. PREDICTS-> 2025-JUN-16
Units conversion: 1 au= 149597870.700 km, c= 299792.458 km/s, 1 day= 86400.0 s 
Table cut-offs 1: Elevation (-90.0deg=NO ),Airmass (>38.000=NO), Daylight (YES)
Table cut-offs 2: Solar elongation (  0.0,180.0=NO ),Local Hour Angle( 0.0=NO )
Table cut-offs 3: RA/DEC angular rate (     0.0=NO )                           
*******************************************************************************
Initial IAU76/J2000 heliocentric ecliptic osculating elements (au, days, deg.):
  EPOCH=  2458428.5 ! 2018-Nov-06.00 (TDB)         Residual RMS= .27219        
   EC= .3884608603153671   QR= 1.011903292497374   TP= 2458433.1511739166      
   OM= 228.4137592171332   W=  180.2469578564258   IN= 3.355185598403424       
  Equivalent ICRF heliocentric cartesian coordinates (au, au/d):
   X= 7.364971791856070E-01  Y= 6.361813492829538E-01  Z= 2.815132693616627E-01
  VX=-1.417073247356795E-02 VY= 1.354428742085641E-02 VZ= 4.590405825264917E-03
Asteroid physical parameters (km, seconds, rotational period in hours):        
   GM= n.a.                RAD= n.a.               ROTPER= n.a.                
   H= 26.2                 G= .150                 B-V= n.a.                   
                           ALBEDO= n.a.            STYP= n.a.                  
*******************************************************************************
 Date__(UT)__HR:MN     R.A._________(ICRF)_________DEC
******************************************************
$$SOE
 2018-Aug-27 15:06 Am  22 29 08.090415 +07 20 27.23669
 2018-Aug-27 15:07 Am  22 29 08.065081 +07 20 27.66130
 2018-Aug-27 15:08 Am  22 29 08.039784 +07 20 28.08588
 2018-Aug-27 15:09 Am  22 29 08.014525 +07 20 28.51043
 2018-Aug-27 15:10 Am  22 29 07.989303 +07 20 28.93495
 2018-Aug-27 15:11 Am  22 29 07.964119 +07 20 29.35943
 2018-Aug-27 15:12 Am  22 29 07.938973 +07 20 29.78389
 2018-Aug-27 15:13 Am  22 29 07.913865 +07 20 30.20831
 2018-Aug-27 15:14 Am  22 29 07.888795 +07 20 30.63271
 2018-Aug-27 15:15 Am  22 29 07.863762 +07 20 31.05708
 2018-Aug-27 15:16 Am  22 29 07.838768 +07 20 31.48141
 2018-Aug-27 15:17 Nm  22 29 07.813812 +07 20 31.90572
 2018-Aug-27 15:18 Nm  22 29 07.788894 +07 20 32.33000
 2018-Aug-27 15:19 Nm  22 29 07.764014 +07 20 32.75425
 2018-Aug-27 15:20 Nm  22 29 07.739172 +07 20 33.17847
 2018-Aug-27 15:21 Nm  22 29 07.714368 +07 20 33.60267
 2018-Aug-27 15:22 Nm  22 29 07.689603 +07 20 34.02684
 2018-Aug-27 15:23 Nm  22 29 07.664876 +07 20 34.45098
 2018-Aug-27 15:24 Nm  22 29 07.640188 +07 20 34.87510
 2018-Aug-27 15:25 Nm  22 29 07.615538 +07 20 35.29919
 2018-Aug-27 15:26 Nm  22 29 07.590927 +07 20 35.72325
 2018-Aug-27 15:27 Nm  22 29 07.566354 +07 20 36.14729
 2018-Aug-27 15:28 Nm  22 29 07.541820 +07 20 36.57130
 2018-Aug-27 15:29 Nm  22 29 07.517325 +07 20 36.99529
 2018-Aug-27 15:30 Nm  22 29 07.492869 +07 20 37.41925
 2018-Aug-27 15:31 Nm  22 29 07.468451 +07 20 37.84319
 2018-Aug-27 15:32 Nm  22 29 07.444072 +07 20 38.26710
 2018-Aug-27 15:33 Nm  22 29 07.419732 +07 20 38.69099
 2018-Aug-27 15:34 Nm  22 29 07.395431 +07 20 39.11486
 2018-Aug-27 15:35 Nm  22 29 07.371169 +07 20 39.53871
 2018-Aug-27 15:36 Nm  22 29 07.346946 +07 20 39.96253
 2018-Aug-27 15:37 Nm  22 29 07.322762 +07 20 40.38633
 2018-Aug-27 15:38 Nm  22 29 07.298617 +07 20 40.81011
 2018-Aug-27 15:39 Nm  22 29 07.274511 +07 20 41.23386
 2018-Aug-27 15:40 Nm  22 29 07.250445 +07 20 41.65760
 2018-Aug-27 15:41 Nm  22 29 07.226417 +07 20 42.08131
 2018-Aug-27 15:42 Nm  22 29 07.202429 +07 20 42.50501
 2018-Aug-27 15:43 Cm  22 29 07.178480 +07 20 42.92868
 2018-Aug-27 15:44 Cm  22 29 07.154571 +07 20 43.35233
 2018-Aug-27 15:45 Cm  22 29 07.130701 +07 20 43.77597
 2018-Aug-27 15:46 Cm  22 29 07.106871 +07 20 44.19958
 2018-Aug-27 15:47 Cm  22 29 07.083079 +07 20 44.62318
 2018-Aug-27 15:48 Cm  22 29 07.059328 +07 20 45.04676
 2018-Aug-27 15:49 Cm  22 29 07.035616 +07 20 45.47031
 2018-Aug-27 15:50 Cm  22 29 07.011943 +07 20 45.89386
 2018-Aug-27 15:51 Cm  22 29 06.988310 +07 20 46.31738
 2018-Aug-27 15:52 Cm  22 29 06.964717 +07 20 46.74089
 2018-Aug-27 15:53 Cm  22 29 06.941163 +07 20 47.16438
 2018-Aug-27 15:54 Cm  22 29 06.917649 +07 20 47.58785
 2018-Aug-27 15:55 Cm  22 29 06.894175 +07 20 48.01131
 2018-Aug-27 15:56 Cm  22 29 06.870740 +07 20 48.43475
